start=new Date('2022-04-16T00:00:00.000Z').valueOf();
sats=[{"REF_FRAME":"TEME","TIME_SYSTEM":"UTC","DECAY_DATE":null,"RCS_SIZE":"LARGE","MEAN_MOTION_DOT":"0.00000526","MEAN_MOTION_DDOT":"0.0000000000000","OBJECT_NAME":"STARLINK-1496","PERIOD":"95.592","SITE":"AFETR","SEMIMAJOR_AXIS":"6925.354","EPOCH":"2022-04-15T06:48:44.426592","ARG_OF_PERICENTER":"56.8716","ECCENTRICITY":"0.00019130","APOAPSIS":"548.544","CLASSIFICATION_TYPE":"U","INCLINATION":"53.0547","REV_AT_EPOCH":"10205","MEAN_ELEMENT_THEORY":"SGP4","COUNTRY_CODE":"US","LAUNCH_DATE":"2020-06-13","EPHEMERIS_TYPE":"0","PERIAPSIS":"545.895","TLE_LINE1":"1 45780U 20038BC  22105.28384753  .00000526  00000-0  54246-4 0  9995","ELEMENT_SET_NO":"999","CENTER_NAME":"EARTH","OBJECT_ID":"2020-038BC","NORAD_CAT_ID":"45780","MEAN_MOTION":"15.06398075","GP_ID":"201304749","OBJECT_TYPE":"PAYLOAD","TLE_LINE2":"2 45780  53.0547 111.0363 0001913  56.8716 303.2457 15.06398075102058","FILE":"3403095","MEAN_ANOMALY":"303.2457","BSTAR":"0.00005424600000","RA_OF_ASC_NODE":"111.0363"},{"SEMIMAJOR_AXIS":"6925.333","OBJECT_NAME":"STARLINK-1497","PERIOD":"95.592","SITE":"AFETR","MEAN_MOTION_DDOT":"0.0000000000000","MEAN_MOTION_DOT":"-0.00000428","REF_FRAME":"TEME","TIME_SYSTEM":"UTC","RCS_SIZE":"LARGE","DECAY_DATE":null,"INCLINATION":"53.0543","APOAPSIS":"548.523","CLASSIFICATION_TYPE":"U","ECCENTRICITY":"0.00019140","ARG_OF_PERICENTER":"48.1178","EPOCH":"2022-04-15T16:59:08.042208","ELEMENT_SET_NO":"999","CENTER_NAME":"EARTH","OBJECT_ID":"2020-038BD","MEAN_MOTION":"15.06405229","NORAD_CAT_ID":"45781","OBJECT_TYPE":"PAYLOAD","GP_ID":"201338910","TLE_LINE1":"1 45781U 20038BD  22105.70773197 -.00000428  00000-0 -98103-5 0  9991","LAUNCH_DATE":"2020-06-13","EPHEMERIS_TYPE":"0","PERIAPSIS":"545.872","REV_AT_EPOCH":"10212","COUNTRY_CODE":"US","MEAN_ELEMENT_THEORY":"SGP4","RA_OF_ASC_NODE":"109.1268","BSTAR":"-0.00000981030000","MEAN_ANOMALY":"311.9974","TLE_LINE2":"2 45781  53.0543 109.1268 0001914  48.1178 311.9974 15.06405229102122","FILE":"3403567"},{"SEMIMAJOR_AXIS":"6925.363","SITE":"AFETR","PERIOD":"95.592","OBJECT_NAME":"STARLINK-1498","MEAN_MOTION_DOT":"-0.00001108","MEAN_MOTION_DDOT":"0.0000000000000","DECAY_DATE":null,"RCS_SIZE":"LARGE","TIME_SYSTEM":"UTC","REF_FRAME":"TEME","INCLINATION":"53.0551","CLASSIFICATION_TYPE":"U","APOAPSIS":"548.489","ARG_OF_PERICENTER":"49.1275","ECCENTRICITY":"0.00018210","EPOCH":"2022-04-15T10:26:21.360480","GP_ID":"201304247","OBJECT_TYPE":"PAYLOAD","NORAD_CAT_ID":"45782","MEAN_MOTION":"15.06395433","OBJECT_ID":"2020-038BE","ELEMENT_SET_NO":"999","CENTER_NAME":"EARTH","TLE_LINE1":"1 45782U 20038BE  22105.43496945 -.00001108  00000-0 -55484-4 0  9995","PERIAPSIS":"545.966","EPHEMERIS_TYPE":"0","LAUNCH_DATE":"2020-06-13","MEAN_ELEMENT_THEORY":"SGP4","COUNTRY_CODE":"US","REV_AT_EPOCH":"10209","RA_OF_ASC_NODE":"110.3544","MEAN_ANOMALY":"310.9872","BSTAR":"-0.00005548400000","FILE":"3403095","TLE_LINE2":"2 45782  53.0551 110.3544 0001821  49.1275 310.9872 15.06395433102096"},{"OBJECT_NAME":"STARLINK-1505","PERIOD":"95.592","SITE":"AFETR","SEMIMAJOR_AXIS":"6925.336","REF_FRAME":"TEME","TIME_SYSTEM":"UTC","DECAY_DATE":null,"RCS_SIZE":"LARGE","MEAN_MOTION_DOT":"0.00000811","MEAN_MOTION_DDOT":"0.0000000000000","CLASSIFICATION_TYPE":"U","APOAPSIS":"548.457","INCLINATION":"53.0561","EPOCH":"2022-04-15T16:53:49.135488","ECCENTRICITY":"0.00018130","ARG_OF_PERICENTER":"62.6441","TLE_LINE1":"1 45783U 20038BF  22105.70404092  .00000811  00000-0  73326-4 0  9991","ELEMENT_SET_NO":"999","CENTER_NAME":"EARTH","OBJECT_ID":"2020-038BF","NORAD_CAT_ID":"45783","MEAN_MOTION":"15.06403949","OBJECT_TYPE":"PAYLOAD","GP_ID":"201339912","REV_AT_EPOCH":"10213","COUNTRY_CODE":"US","MEAN_ELEMENT_THEORY":"SGP4","LAUNCH_DATE":"2020-06-13","EPHEMERIS_TYPE":"0","PERIAPSIS":"545.946","RA_OF_ASC_NODE":"109.1391","TLE_LINE2":"2 45783  53.0561 109.1391 0001813  62.6441 297.4732 15.06403949102131","FILE":"3403567","MEAN_ANOMALY":"297.4732","BSTAR":"0.00007332600000"},{"SEMIMAJOR_AXIS":"6925.283","SITE":"AFETR","OBJECT_NAME":"STARLINK-1510","PERIOD":"95.591","MEAN_MOTION_DDOT":"0.0000000000000","MEAN_MOTION_DOT":"0.00007946","DECAY_DATE":null,"RCS_SIZE":"LARGE","REF_FRAME":"TEME","TIME_SYSTEM":"UTC","INCLINATION":"53.0510","CLASSIFICATION_TYPE":"U","APOAPSIS":"548.378","ARG_OF_PERICENTER":"53.8751","ECCENTRICITY":"0.00017760","EPOCH":"2022-04-15T17:52:12.737568","NORAD_CAT_ID":"45784","MEAN_MOTION":"15.06421412","GP_ID":"201340662","OBJECT_TYPE":"PAYLOAD","ELEMENT_SET_NO":"999","CENTER_NAME":"EARTH","OBJECT_ID":"2020-038BG","TLE_LINE1":"1 45784U 20038BG  22105.74459187  .00007946  00000-0  55143-3 0  9993","PERIAPSIS":"545.918","EPHEMERIS_TYPE":"0","LAUNCH_DATE":"2020-06-13","REV_AT_EPOCH":"10213","COUNTRY_CODE":"US","MEAN_ELEMENT_THEORY":"SGP4","RA_OF_ASC_NODE":"108.9579","BSTAR":"0.00055143000000","MEAN_ANOMALY":"306.2402","FILE":"3403567","TLE_LINE2":"2 45784  53.0510 108.9579 0001776  53.8751 306.2402 15.06421412102133"},{"CENTER_NAME":"EARTH","ELEMENT_SET_NO":"999","OBJECT_ID":"2020-038BH","MEAN_MOTION":"15.06403922","NORAD_CAT_ID":"45785","GP_ID":"201339410","OBJECT_TYPE":"PAYLOAD","TLE_LINE1":"1 45785U 20038BH  22105.72615778  .00002680  00000-0  19874-3 0  9993","EPHEMERIS_TYPE":"0","LAUNCH_DATE":"2020-06-13","PERIAPSIS":"545.803","REV_AT_EPOCH":"10213","MEAN_ELEMENT_THEORY":"SGP4","COUNTRY_CODE":"US","RA_OF_ASC_NODE":"109.0268","MEAN_ANOMALY":"311.8633","BSTAR":"0.00019874000000","TLE_LINE2":"2 45785  53.0525 109.0268 0002019  48.2529 311.8633 15.06403922102133","FILE":"3403567","SEMIMAJOR_AXIS":"6925.337","OBJECT_NAME":"STARLINK-1512","PERIOD":"95.592","SITE":"AFETR","MEAN_MOTION_DDOT":"0.0000000000000","MEAN_MOTION_DOT":"0.00002680","REF_FRAME":"TEME","TIME_SYSTEM":"UTC","DECAY_DATE":null,"RCS_SIZE":"LARGE","INCLINATION":"53.0525","CLASSIFICATION_TYPE":"U","APOAPSIS":"548.600","ARG_OF_PERICENTER":"48.2529","ECCENTRICITY":"0.00020190","EPOCH":"2022-04-15T17:25:40.032192"},{"PERIAPSIS":"545.869","EPHEMERIS_TYPE":"0","LAUNCH_DATE":"2020-06-13","MEAN_ELEMENT_THEORY":"SGP4","COUNTRY_CODE":"US","REV_AT_EPOCH":"10213","GP_ID":"201339660","OBJECT_TYPE":"PAYLOAD","NORAD_CAT_ID":"45786","MEAN_MOTION":"15.06398656","OBJECT_ID":"2020-038BJ","CENTER_NAME":"EARTH","ELEMENT_SET_NO":"999","TLE_LINE1":"1 45786U 20038BJ  22105.71142318  .00000872  00000-0  77444-4 0  9997","MEAN_ANOMALY":"308.3174","BSTAR":"0.00007744400000","FILE":"3403567","TLE_LINE2":"2 45786  53.0553 109.1079 0001948  51.7990 308.3174 15.06398656102135","RA_OF_ASC_NODE":"109.1079","MEAN_MOTION_DDOT":"0.0000000000000","MEAN_MOTION_DOT":"0.00000872","RCS_SIZE":"LARGE","DECAY_DATE":null,"TIME_SYSTEM":"UTC","REF_FRAME":"TEME","SEMIMAJOR_AXIS":"6925.353","SITE":"AFETR","PERIOD":"95.592","OBJECT_NAME":"STARLINK-1513","ARG_OF_PERICENTER":"51.7990","ECCENTRICITY":"0.00019480","EPOCH":"2022-04-15T17:04:26.962752","INCLINATION":"53.0553","APOAPSIS":"548.567","CLASSIFICATION_TYPE":"U"},{"ECCENTRICITY":"0.00019240","ARG_OF_PERICENTER":"59.3817","EPOCH":"2022-04-15T17:15:03.479328","INCLINATION":"53.0528","CLASSIFICATION_TYPE":"U","APOAPSIS":"548.508","MEAN_MOTION_DOT":"0.00002154","MEAN_MOTION_DDOT":"0.0000000000000","DECAY_DATE":null,"RCS_SIZE":"LARGE","TIME_SYSTEM":"UTC","REF_FRAME":"TEME","SEMIMAJOR_AXIS":"6925.311","SITE":"AFETR","PERIOD":"95.591","OBJECT_NAME":"STARLINK-1517","BSTAR":"0.00016342000000","MEAN_ANOMALY":"300.7362","FILE":"3403567","TLE_LINE2":"2 45787  53.0528 109.0779 0001924  59.3817 300.7362 15.06412246102137","RA_OF_ASC_NODE":"109.0779","PERIAPSIS":"545.844","LAUNCH_DATE":"2020-06-13","EPHEMERIS_TYPE":"0","MEAN_ELEMENT_THEORY":"SGP4","COUNTRY_CODE":"US","REV_AT_EPOCH":"10213","OBJECT_TYPE":"PAYLOAD","GP_ID":"201340412","MEAN_MOTION":"15.06412246","NORAD_CAT_ID":"45787","OBJECT_ID":"2020-038BK","CENTER_NAME":"EARTH","ELEMENT_SET_NO":"999","TLE_LINE1":"1 45787U 20038BK  22105.71879027  .00002154  00000-0  16342-3 0  9996"},{"PERIOD":"95.591","OBJECT_NAME":"STARLINK-1522","SITE":"AFETR","SEMIMAJOR_AXIS":"6925.302","TIME_SYSTEM":"UTC","REF_FRAME":"TEME","DECAY_DATE":null,"RCS_SIZE":"LARGE","MEAN_MOTION_DOT":"0.00002519","MEAN_MOTION_DDOT":"0.0000000000000","APOAPSIS":"548.270","CLASSIFICATION_TYPE":"U","INCLINATION":"53.0550","EPOCH":"2022-04-15T19:47:37.116096","ECCENTRICITY":"0.00015920","ARG_OF_PERICENTER":"73.9048","TLE_LINE1":"1 46027U 20055A   22105.82473514  .00002519  00000-0  18786-3 0  9995","OBJECT_ID":"2020-055A","ELEMENT_SET_NO":"999","CENTER_NAME":"EARTH","GP_ID":"201339185","OBJECT_TYPE":"PAYLOAD","NORAD_CAT_ID":"46027","MEAN_MOTION":"15.06415058","COUNTRY_CODE":"US","MEAN_ELEMENT_THEORY":"SGP4","REV_AT_EPOCH":"9427","LAUNCH_DATE":"2020-08-07","EPHEMERIS_TYPE":"0","PERIAPSIS":"546.065","RA_OF_ASC_NODE":"38.5864","TLE_LINE2":"2 46027  53.0550  38.5864 0001592  73.9048 286.2116 15.06415058 94274","FILE":"3403567","BSTAR":"0.00018786000000","MEAN_ANOMALY":"286.2116"},{"SEMIMAJOR_AXIS":"6925.280","SITE":"AFETR","PERIOD":"95.591","OBJECT_NAME":"STARLINK-1523","MEAN_MOTION_DOT":"0.00002695","MEAN_MOTION_DDOT":"0.0000000000000","DECAY_DATE":null,"RCS_SIZE":"LARGE","TIME_SYSTEM":"UTC","REF_FRAME":"TEME","INCLINATION":"53.0558","CLASSIFICATION_TYPE":"U","APOAPSIS":"548.200","ARG_OF_PERICENTER":"70.5984","ECCENTRICITY":"0.00015230","EPOCH":"2022-04-15T21:44:23.151264","GP_ID":"201339937","OBJECT_TYPE":"PAYLOAD","MEAN_MOTION":"15.06422287","NORAD_CAT_ID":"46028","OBJECT_ID":"2020-055B","CENTER_NAME":"EARTH","ELEMENT_SET_NO":"999","TLE_LINE1":"1 46028U 20055B   22105.90582351  .00002695  00000-0  19966-3 0  9991","PERIAPSIS":"546.091","EPHEMERIS_TYPE":"0","LAUNCH_DATE":"2020-08-07","MEAN_ELEMENT_THEORY":"SGP4","COUNTRY_CODE":"US","REV_AT_EPOCH":"9430","RA_OF_ASC_NODE":"38.2210","BSTAR":"0.00019966000000","MEAN_ANOMALY":"289.5169","FILE":"3403567","TLE_LINE2":"2 46028  53.0558  38.2210 0001523  70.5984 289.5169 15.06422287 94301"}];
